GLOBALSTAR M035         
1 25851U 99037A   25354.28490417 -.00000037  00000+0  10083-2 0  9997
2 25851  51.9985 359.9478 0013611 283.5601 166.3229 11.04540267116829
GLOBALSTAR M032         
1 25852U 99037B   25354.74980557 -.00000049  00000+0  56682-3 0  9997
2 25852  51.9913 171.2390 0013761 118.6007 241.6178 11.19075383155677
GLOBALSTAR M051         
1 25853U 99037C   25354.63159308 -.00000111  00000+0 -95139-3 0  9999
2 25853  51.9820 311.1170 0000341  37.4069 322.6765 11.42202320153693
GLOBALSTAR M030         
1 25854U 99037D   25353.35392169 -.00000087  00000+0 -24920-3 0  9994
2 25854  51.9888 108.5269 0003403  39.2370 320.8693 11.55111338171447
GLOBALSTAR M048         
1 25872U 99041A   25354.02743116 -.00000036  00000+0  91397-3 0  9991
2 25872  51.9365 254.7944 0013316 141.8934 231.3456 11.33861106146065
GLOBALSTAR M026         
1 25873U 99041B   25354.55415574 -.00000108  00000+0 -16078-2 0  9997
2 25873  52.0001 115.3381 0001795 182.6556 260.8818 11.06849030169126
GLOBALSTAR M043         
1 25874U 99041C   25354.76686606 -.00000003  00000+0  19509-2 0  9992
2 25874  51.9432   8.1146 0013445 268.3028 262.2478 11.25698545143889
GLOBALSTAR M028         
1 25875U 99041D   25354.69545260 -.00000098  00000+0  16658-4 0  9993
2 25875  51.9645 356.9245 0063483 116.4500 244.2892 12.50592943213517
